start=new Date('2022-07-02T00:00:00.000Z').valueOf();
sats=[{"ARG_OF_PERICENTER":"73.5665","CLASSIFICATION_TYPE":"U","RCS_SIZE":"LARGE","SITE":"AFETR","OBJECT_NAME":"STARLINK-1882","PERIOD":"95.593","NORAD_CAT_ID":"46784","EPHEMERIS_TYPE":"0","BSTAR":"-0.00004037100000","REV_AT_EPOCH":"9376","REF_FRAME":"TEME","APOAPSIS":"548.041","CENTER_NAME":"EARTH","DECAY_DATE":null,"GP_ID":"207208759","MEAN_MOTION_DOT":"-0.00000882","INCLINATION":"53.0526","MEAN_MOTION_DDOT":"0.0000000000000","RA_OF_ASC_NODE":"239.2377","PERIAPSIS":"546.427","LAUNCH_DATE":"2020-10-24","TLE_LINE2":"2 46784  53.0526 239.2377 0001165  73.5665 286.5452 15.06393248 93768","COUNTRY_CODE":"US","MEAN_ELEMENT_THEORY":"SGP4","TLE_LINE1":"1 46784U 20074AX  22182.53143705 -.00000882  00000-0 -40371-4 0  9994","TIME_SYSTEM":"UTC","FILE":"3506285","MEAN_MOTION":"15.06393248","OBJECT_TYPE":"PAYLOAD","SEMIMAJOR_AXIS":"6925.369","ECCENTRICITY":"0.00011650","OBJECT_ID":"2020-074AX","EPOCH":"2022-07-01T12:45:16.161120","MEAN_ANOMALY":"286.5452","ELEMENT_SET_NO":"999"},{"PERIAPSIS":"546.048","LAUNCH_DATE":"2020-10-24","TLE_LINE2":"2 46785  53.0525 239.6087 0001658  64.6107 295.5053 15.06405668 93755","COUNTRY_CODE":"US","INCLINATION":"53.0525","RA_OF_ASC_NODE":"239.6087","MEAN_MOTION_DDOT":"0.0000000000000","MEAN_MOTION_DOT":"0.00003298","REF_FRAME":"TEME","APOAPSIS":"548.344","CENTER_NAME":"EARTH","DECAY_DATE":null,"GP_ID":"207209010","PERIOD":"95.592","NORAD_CAT_ID":"46785","EPHEMERIS_TYPE":"0","REV_AT_EPOCH":"9375","BSTAR":"0.00024017000000","CLASSIFICATION_TYPE":"U","SITE":"AFETR","OBJECT_NAME":"STARLINK-1883","RCS_SIZE":"LARGE","ARG_OF_PERICENTER":"64.6107","MEAN_ANOMALY":"295.5053","ELEMENT_SET_NO":"999","SEMIMAJOR_AXIS":"6925.331","ECCENTRICITY":"0.00016580","OBJECT_ID":"2020-074AY","EPOCH":"2022-07-01T10:49:51.406752","OBJECT_TYPE":"PAYLOAD","MEAN_MOTION":"15.06405668","FILE":"3506285","TLE_LINE1":"1 46785U 20074AY  22182.45128943  .00003298  00000-0  24017-3 0  9993","TIME_SYSTEM":"UTC","MEAN_ELEMENT_THEORY":"SGP4"},{"ARG_OF_PERICENTER":"75.9423","CLASSIFICATION_TYPE":"U","RCS_SIZE":"LARGE","SITE":"AFETR","OBJECT_NAME":"STARLINK-1893","NORAD_CAT_ID":"46786","PERIOD":"95.592","EPHEMERIS_TYPE":"0","BSTAR":"0.00005746300000","REV_AT_EPOCH":"9404","REF_FRAME":"TEME","APOAPSIS":"548.098","CENTER_NAME":"EARTH","DECAY_DATE":null,"GP_ID":"207209261","MEAN_MOTION_DOT":"0.00000575","INCLINATION":"53.0547","MEAN_MOTION_DDOT":"0.0000000000000","RA_OF_ASC_NODE":"219.4094","PERIAPSIS":"546.342","LAUNCH_DATE":"2020-10-24","COUNTRY_CODE":"US","TLE_LINE2":"2 46786  53.0547 219.4094 0001268  75.9423 284.1707 15.06397925 94046","MEAN_ELEMENT_THEORY":"SGP4","TLE_LINE1":"1 46786U 20074AZ  22182.49736675  .00000575  00000-0  57463-4 0  9992","TIME_SYSTEM":"UTC","FILE":"3506285","MEAN_MOTION":"15.06397925","OBJECT_TYPE":"PAYLOAD","ECCENTRICITY":"0.00012680","SEMIMAJOR_AXIS":"6925.355","OBJECT_ID":"2020-074AZ","EPOCH":"2022-07-01T11:56:12.487200","MEAN_ANOMALY":"284.1707","ELEMENT_SET_NO":"999"},{"OBJECT_ID":"2020-074BA","ECCENTRICITY":"0.00014230","SEMIMAJOR_AXIS":"6925.338","EPOCH":"2022-07-01T11:45:34.907040","ELEMENT_SET_NO":"999","MEAN_ANOMALY":"286.1708","OBJECT_TYPE":"PAYLOAD","FILE":"3506285","MEAN_MOTION":"15.06403409","MEAN_ELEMENT_THEORY":"SGP4","TLE_LINE1":"1 46787U 20074BA  22182.48998735  .00001189  00000-0  98676-4 0  9992","TIME_SYSTEM":"UTC","MEAN_MOTION_DDOT":"0.0000000000000","RA_OF_ASC_NODE":"219.4269","INCLINATION":"53.0541","LAUNCH_DATE":"2020-10-24","PERIAPSIS":"546.218","TLE_LINE2":"2 46787  53.0541 219.4269 0001423  73.9437 286.1708 15.06403409 94049","COUNTRY_CODE":"US","CENTER_NAME":"EARTH","DECAY_DATE":null,"APOAPSIS":"548.189","REF_FRAME":"TEME","GP_ID":"207208009","MEAN_MOTION_DOT":"0.00001189","SITE":"AFETR","OBJECT_NAME":"STARLINK-1899","RCS_SIZE":"LARGE","CLASSIFICATION_TYPE":"U","EPHEMERIS_TYPE":"0","PERIOD":"95.592","NORAD_CAT_ID":"46787","BSTAR":"0.00009867600000","REV_AT_EPOCH":"9404","ARG_OF_PERICENTER":"73.9437"},{"ELEMENT_SET_NO":"999","MEAN_ANOMALY":"307.6052","EPOCH":"2022-07-01T11:35:00.052800","OBJECT_ID":"2020-074BB","ECCENTRICITY":"0.00017030","SEMIMAJOR_AXIS":"6925.379","OBJECT_TYPE":"PAYLOAD","MEAN_MOTION":"15.06389924","FILE":"3506285","TIME_SYSTEM":"UTC","TLE_LINE1":"1 46788U 20074BB  22182.48263950  .00000741  00000-0  68655-4 0  9994","MEAN_ELEMENT_THEORY":"SGP4","COUNTRY_CODE":"US","TLE_LINE2":"2 46788  53.0526 219.4762 0001703  52.5091 307.6052 15.06389924 94047","LAUNCH_DATE":"2020-10-24","PERIAPSIS":"546.065","RA_OF_ASC_NODE":"219.4762","MEAN_MOTION_DDOT":"0.0000000000000","INCLINATION":"53.0526","MEAN_MOTION_DOT":"0.00000741","GP_ID":"207208259","CENTER_NAME":"EARTH","DECAY_DATE":null,"REF_FRAME":"TEME","APOAPSIS":"548.424","REV_AT_EPOCH":"9404","BSTAR":"0.00006865500000","EPHEMERIS_TYPE":"0","NORAD_CAT_ID":"46788","PERIOD":"95.593","SITE":"AFETR","RCS_SIZE":"LARGE","OBJECT_NAME":"STARLINK-1929","CLASSIFICATION_TYPE":"U","ARG_OF_PERICENTER":"52.5091"},{"GP_ID":"207209510","REF_FRAME":"TEME","APOAPSIS":"548.147","CENTER_NAME":"EARTH","DECAY_DATE":null,"MEAN_MOTION_DOT":"-0.00000196","INCLINATION":"53.0545","MEAN_MOTION_DDOT":"0.0000000000000","RA_OF_ASC_NODE":"249.5292","TLE_LINE2":"2 46789  53.0545 249.5292 0001332  68.6228 291.4903 15.06396455 93624","COUNTRY_CODE":"US","PERIAPSIS":"546.302","LAUNCH_DATE":"2020-10-24","ARG_OF_PERICENTER":"68.6228","CLASSIFICATION_TYPE":"U","OBJECT_NAME":"STARLINK-1930","SITE":"AFETR","RCS_SIZE":"LARGE","BSTAR":"0.00000575840000","REV_AT_EPOCH":"9362","PERIOD":"95.592","NORAD_CAT_ID":"46789","EPHEMERIS_TYPE":"0","OBJECT_TYPE":"PAYLOAD","EPOCH":"2022-07-01T12:08:11.214240","ECCENTRICITY":"0.00013320","SEMIMAJOR_AXIS":"6925.359","OBJECT_ID":"2020-074BC","MEAN_ANOMALY":"291.4903","ELEMENT_SET_NO":"999","MEAN_ELEMENT_THEORY":"SGP4","TIME_SYSTEM":"UTC","TLE_LINE1":"1 46789U 20074BC  22182.50568535 -.00000196  00000-0  57584-5 0  9990","FILE":"3506285","MEAN_MOTION":"15.06396455"},{"OBJECT_ID":"2020-074BD","SEMIMAJOR_AXIS":"6925.368","ECCENTRICITY":"0.00011440","EPOCH":"2022-07-01T11:15:04.391712","ELEMENT_SET_NO":"999","MEAN_ANOMALY":"294.1144","OBJECT_TYPE":"PAYLOAD","FILE":"3506285","MEAN_MOTION":"15.06393756","MEAN_ELEMENT_THEORY":"SGP4","TLE_LINE1":"1 46790U 20074BD  22182.46880083 -.00000276  00000-0  36740-6 0  9993","TIME_SYSTEM":"UTC","RA_OF_ASC_NODE":"249.5411","MEAN_MOTION_DDOT":"0.0000000000000","INCLINATION":"53.0555","LAUNCH_DATE":"2020-10-24","PERIAPSIS":"546.440","COUNTRY_CODE":"US","TLE_LINE2":"2 46790  53.0555 249.5411 0001144  65.9965 294.1144 15.06393756 93616","DECAY_DATE":null,"CENTER_NAME":"EARTH","REF_FRAME":"TEME","APOAPSIS":"548.025","GP_ID":"207209761","MEAN_MOTION_DOT":"-0.00000276","SITE":"AFETR","RCS_SIZE":"LARGE","OBJECT_NAME":"STARLINK-1931","CLASSIFICATION_TYPE":"U","EPHEMERIS_TYPE":"0","NORAD_CAT_ID":"46790","PERIOD":"95.593","REV_AT_EPOCH":"9361","BSTAR":"0.00000036740000","ARG_OF_PERICENTER":"65.9965"},{"ARG_OF_PERICENTER":"53.8863","NORAD_CAT_ID":"46791","PERIOD":"95.593","EPHEMERIS_TYPE":"0","BSTAR":"-0.00001384400000","REV_AT_EPOCH":"9362","CLASSIFICATION_TYPE":"U","SITE":"AFETR","RCS_SIZE":"LARGE","OBJECT_NAME":"STARLINK-1933","MEAN_MOTION_DOT":"-0.00000488","REF_FRAME":"TEME","APOAPSIS":"548.451","DECAY_DATE":null,"CENTER_NAME":"EARTH","GP_ID":"207208510","PERIAPSIS":"546.023","LAUNCH_DATE":"2020-10-24","TLE_LINE2":"2 46791  53.0559 249.4603 0001753  53.8863 306.2288 15.06392205 93625","COUNTRY_CODE":"US","INCLINATION":"53.0559","RA_OF_ASC_NODE":"249.4603","MEAN_MOTION_DDOT":"0.0000000000000","TLE_LINE1":"1 46791U 20074BE  22182.48354493 -.00000488  00000-0 -13844-4 0  9991","TIME_SYSTEM":"UTC","MEAN_ELEMENT_THEORY":"SGP4","MEAN_MOTION":"15.06392205","FILE":"3506285","OBJECT_TYPE":"PAYLOAD","MEAN_ANOMALY":"306.2288","ELEMENT_SET_NO":"999","SEMIMAJOR_AXIS":"6925.372","ECCENTRICITY":"0.00017530","OBJECT_ID":"2020-074BE","EPOCH":"2022-07-01T11:36:18.281952"},{"FILE":"3506285","MEAN_MOTION":"15.06400343","MEAN_ELEMENT_THEORY":"SGP4","TIME_SYSTEM":"UTC","TLE_LINE1":"1 46792U 20074BF  22182.44390801  .00000996  00000-0  85759-4 0  9997","EPOCH":"2022-07-01T10:39:13.652064","OBJECT_ID":"2020-074BF","SEMIMAJOR_AXIS":"6925.348","ECCENTRICITY":"0.00017170","ELEMENT_SET_NO":"999","MEAN_ANOMALY":"308.7095","OBJECT_TYPE":"PAYLOAD","RCS_SIZE":"LARGE","SITE":"AFETR","OBJECT_NAME":"STARLINK-1934","CLASSIFICATION_TYPE":"U","BSTAR":"0.00008575900000","REV_AT_EPOCH":"9375","EPHEMERIS_TYPE":"0","NORAD_CAT_ID":"46792","PERIOD":"95.592","ARG_OF_PERICENTER":"51.4047","MEAN_MOTION_DDOT":"0.0000000000000","RA_OF_ASC_NODE":"239.6286","INCLINATION":"53.0540","TLE_LINE2":"2 46792  53.0540 239.6286 0001717  51.4047 308.7095 15.06400343 93752","COUNTRY_CODE":"US","LAUNCH_DATE":"2020-10-24","PERIAPSIS":"546.023","GP_ID":"207208760","DECAY_DATE":null,"CENTER_NAME":"EARTH","APOAPSIS":"548.402","REF_FRAME":"TEME","MEAN_MOTION_DOT":"0.00000996"},{"SEMIMAJOR_AXIS":"6925.361","ECCENTRICITY":"0.00012590","OBJECT_ID":"2020-074BG","EPOCH":"2022-07-01T12:55:54.835104","MEAN_ANOMALY":"288.0968","ELEMENT_SET_NO":"999","OBJECT_TYPE":"PAYLOAD","FILE":"3506285","MEAN_MOTION":"15.06395965","MEAN_ELEMENT_THEORY":"SGP4","TLE_LINE1":"1 46793U 20074BG  22182.53882911 -.00000494  00000-0 -14293-4 0  9996","TIME_SYSTEM":"UTC","INCLINATION":"53.0545","RA_OF_ASC_NODE":"249.2205","MEAN_MOTION_DDOT":"0.0000000000000","PERIAPSIS":"546.354","LAUNCH_DATE":"2020-10-24","COUNTRY_CODE":"US","TLE_LINE2":"2 46793  53.0545 249.2205 0001259  72.0159 288.0968 15.06395965 93628","APOAPSIS":"548.098","REF_FRAME":"TEME","CENTER_NAME":"EARTH","DECAY_DATE":null,"GP_ID":"207209011","MEAN_MOTION_DOT":"-0.00000494","CLASSIFICATION_TYPE":"U","SITE":"AFETR","RCS_SIZE":"LARGE","OBJECT_NAME":"STARLINK-1941","PERIOD":"95.592","NORAD_CAT_ID":"46793","EPHEMERIS_TYPE":"0","BSTAR":"-0.00001429300000","REV_AT_EPOCH":"9362","ARG_OF_PERICENTER":"72.0159"}];
